[{"OBJECT_NAME":"JINJUSAT-1B","OBJECT_ID":"2025-052A","EPOCH":"2026-03-09T15:55:38.242848","MEAN_MOTION":15.30194857,"ECCENTRICITY":0.00055504,"INCLINATION":97.4113,"RA_OF_ASC_NODE":325.4613,"ARG_OF_PERICENTER":82.193,"MEAN_ANOMALY":277.9941,"EPHEMERIS_TYPE":0,"CLASSIFICATION_TYPE":"U","NORAD_CAT_ID":63210,"ELEMENT_SET_NO":999,"REV_AT_EPOCH":5486,"BSTAR":0.00068430401,"MEAN_MOTION_DOT":0.00019955,"MEAN_MOTION_DDOT":0},{"OBJECT_NAME":"STARLINK-34196","OBJECT_ID":"2025-189B","EPOCH":"2026-03-09T15:38:19.592160","MEAN_MOTION":15.3017852,"ECCENTRICITY":0.00011134,"INCLINATION":53.1598,"RA_OF_ASC_NODE":206.7304,"ARG_OF_PERICENTER":49.2578,"MEAN_ANOMALY":310.8519,"EPHEMERIS_TYPE":0,"CLASSIFICATION_TYPE":"U","NORAD_CAT_ID":65324,"ELEMENT_SET_NO":999,"REV_AT_EPOCH":3105,"BSTAR":0.00042843396,"MEAN_MOTION_DOT":0.00012343,"MEAN_MOTION_DDOT":0}]
