JINJUSAT-1B             
1 63210U 25052A   26068.66363707  .00019955  00000+0  68430-3 0  9998
2 63210  97.4113 325.4613 0005550  82.1930 277.9941 15.30194857 54866
STARLINK-34196          
1 65324U 25189B   26068.65161565  .00012343  00000+0  42843-3 0  9998
2 65324  53.1598 206.7304 0001113  49.2578 310.8519 15.30178520 31054
